[
	{
		"OBJECT_NAME": "STARLINK-3110",
		"OBJECT_ID": "2021-104N",
		"EPOCH": "2024-11-02T04:56:34.329696",
		"MEAN_MOTION": 15.0884119,
		"ECCENTRICITY": 0.0001518,
		"INCLINATION": 53.2168,
		"RA_OF_ASC_NODE": 279.9618,
		"ARG_OF_PERICENTER": 96.6836,
		"MEAN_ANOMALY": 263.4329,
		"EPHEMERIS_TYPE": 0,
		"CLASSIFICATION_TYPE": "U",
		"NORAD_CAT_ID": 49420,
		"ELEMENT_SET_NO": 999,
		"REV_AT_EPOCH": 16427,
		"BSTAR": 0.00010992,
		"MEAN_MOTION_DOT": 1.462e-5,
		"MEAN_MOTION_DDOT": 0
	},
	{
		"OBJECT_NAME": "STARLINK-3112",
		"OBJECT_ID": "2021-104P",
		"EPOCH": "2024-11-03T07:10:24.302496",
		"MEAN_MOTION": 15.08846693,
		"ECCENTRICITY": 0.0002028,
		"INCLINATION": 53.2186,
		"RA_OF_ASC_NODE": 274.8569,
		"ARG_OF_PERICENTER": 82.7721,
		"MEAN_ANOMALY": 277.3501,
		"EPHEMERIS_TYPE": 0,
		"CLASSIFICATION_TYPE": "U",
		"NORAD_CAT_ID": 49421,
		"ELEMENT_SET_NO": 999,
		"REV_AT_EPOCH": 16444,
		"BSTAR": 0.00020536,
		"MEAN_MOTION_DOT": 2.982e-5,
		"MEAN_MOTION_DDOT": 0
	},
	{
		"OBJECT_NAME": "STARLINK-3161",
		"OBJECT_ID": "2021-104Q",
		"EPOCH": "2024-11-03T08:36:39.449088",
		"MEAN_MOTION": 15.08848965,
		"ECCENTRICITY": 0.0001413,
		"INCLINATION": 53.2179,
		"RA_OF_ASC_NODE": 275.1052,
		"ARG_OF_PERICENTER": 78.6084,
		"MEAN_ANOMALY": 281.5067,
		"EPHEMERIS_TYPE": 0,
		"CLASSIFICATION_TYPE": "U",
		"NORAD_CAT_ID": 49422,
		"ELEMENT_SET_NO": 999,
		"REV_AT_EPOCH": 16444,
		"BSTAR": 0.00049714,
		"MEAN_MOTION_DOT": 7.635e-5,
		"MEAN_MOTION_DDOT": 0
	},
	{
		"OBJECT_NAME": "STARLINK-3149",
		"OBJECT_ID": "2021-104R",
		"EPOCH": "2024-11-03T04:42:05.825664",
		"MEAN_MOTION": 15.08837385,
		"ECCENTRICITY": 0.0001592,
		"INCLINATION": 53.2168,
		"RA_OF_ASC_NODE": 275.7084,
		"ARG_OF_PERICENTER": 100.5184,
		"MEAN_ANOMALY": 259.5988,
		"EPHEMERIS_TYPE": 0,
		"CLASSIFICATION_TYPE": "U",
		"NORAD_CAT_ID": 49423,
		"ELEMENT_SET_NO": 999,
		"REV_AT_EPOCH": 16442,
		"BSTAR": 0.00023592,
		"MEAN_MOTION_DOT": 3.468e-5,
		"MEAN_MOTION_DDOT": 0
	},
	{
		"OBJECT_NAME": "STARLINK-3135",
		"OBJECT_ID": "2021-104S",
		"EPOCH": "2024-11-03T07:42:13.729536",
		"MEAN_MOTION": 15.08846034,
		"ECCENTRICITY": 0.0001671,
		"INCLINATION": 53.2184,
		"RA_OF_ASC_NODE": 274.9514,
		"ARG_OF_PERICENTER": 98.1159,
		"MEAN_ANOMALY": 262.0023,
		"EPHEMERIS_TYPE": 0,
		"CLASSIFICATION_TYPE": "U",
		"NORAD_CAT_ID": 49424,
		"ELEMENT_SET_NO": 999,
		"REV_AT_EPOCH": 16444,
		"BSTAR": 0.00021471,
		"MEAN_MOTION_DOT": 3.131e-5,
		"MEAN_MOTION_DDOT": 0
	},
	{
		"OBJECT_NAME": "STARLINK-3139",
		"OBJECT_ID": "2021-104T",
		"EPOCH": "2024-11-03T05:47:01.771872",
		"MEAN_MOTION": 15.08845902,
		"ECCENTRICITY": 0.0001558,
		"INCLINATION": 53.2171,
		"RA_OF_ASC_NODE": 275.3263,
		"ARG_OF_PERICENTER": 91.3428,
		"MEAN_ANOMALY": 268.7742,
		"EPHEMERIS_TYPE": 0,
		"CLASSIFICATION_TYPE": "U",
		"NORAD_CAT_ID": 49425,
		"ELEMENT_SET_NO": 999,
		"REV_AT_EPOCH": 16552,
		"BSTAR": 0.00015349,
		"MEAN_MOTION_DOT": 2.156e-5,
		"MEAN_MOTION_DDOT": 0
	},
	{
		"OBJECT_NAME": "STARLINK-3114",
		"OBJECT_ID": "2021-104U",
		"EPOCH": "2024-11-03T07:31:37.836768",
		"MEAN_MOTION": 15.08848373,
		"ECCENTRICITY": 0.0001926,
		"INCLINATION": 53.2187,
		"RA_OF_ASC_NODE": 274.9831,
		"ARG_OF_PERICENTER": 101.9688,
		"MEAN_ANOMALY": 258.152,
		"EPHEMERIS_TYPE": 0,
		"CLASSIFICATION_TYPE": "U",
		"NORAD_CAT_ID": 49426,
		"ELEMENT_SET_NO": 999,
		"REV_AT_EPOCH": 16444,
		"BSTAR": 9.0736e-5,
		"MEAN_MOTION_DOT": 1.157e-5,
		"MEAN_MOTION_DDOT": 0
	},
	{
		"OBJECT_NAME": "STARLINK-3131",
		"OBJECT_ID": "2021-104V",
		"EPOCH": "2024-11-03T05:41:43.741248",
		"MEAN_MOTION": 15.08843984,
		"ECCENTRICITY": 0.0001621,
		"INCLINATION": 53.2177,
		"RA_OF_ASC_NODE": 275.3409,
		"ARG_OF_PERICENTER": 87.0439,
		"MEAN_ANOMALY": 273.0739,
		"EPHEMERIS_TYPE": 0,
		"CLASSIFICATION_TYPE": "U",
		"NORAD_CAT_ID": 49427,
		"ELEMENT_SET_NO": 999,
		"REV_AT_EPOCH": 16444,
		"BSTAR": 0.00016504,
		"MEAN_MOTION_DOT": 2.34e-5,
		"MEAN_MOTION_DDOT": 0
	},
	{
		"OBJECT_NAME": "STARLINK-3121",
		"OBJECT_ID": "2021-104W",
		"EPOCH": "2024-11-03T14:46:08.867424",
		"MEAN_MOTION": 15.08851091,
		"ECCENTRICITY": 0.0001782,
		"INCLINATION": 53.2168,
		"RA_OF_ASC_NODE": 273.5488,
		"ARG_OF_PERICENTER": 89.4144,
		"MEAN_ANOMALY": 270.7052,
		"EPHEMERIS_TYPE": 0,
		"CLASSIFICATION_TYPE": "U",
		"NORAD_CAT_ID": 49428,
		"ELEMENT_SET_NO": 999,
		"REV_AT_EPOCH": 16450,
		"BSTAR": 9.7103e-5,
		"MEAN_MOTION_DOT": 1.258e-5,
		"MEAN_MOTION_DDOT": 0
	},
	{
		"OBJECT_NAME": "STARLINK-3138",
		"OBJECT_ID": "2021-104Y",
		"EPOCH": "2024-11-03T04:38:11.102784",
		"MEAN_MOTION": 15.08841462,
		"ECCENTRICITY": 0.0001553,
		"INCLINATION": 53.2172,
		"RA_OF_ASC_NODE": 275.8089,
		"ARG_OF_PERICENTER": 98.0497,
		"MEAN_ANOMALY": 262.0672,
		"EPHEMERIS_TYPE": 0,
		"CLASSIFICATION_TYPE": "U",
		"NORAD_CAT_ID": 49430,
		"ELEMENT_SET_NO": 999,
		"REV_AT_EPOCH": 16443,
		"BSTAR": 7.6012e-5,
		"MEAN_MOTION_DOT": 9.22e-6,
		"MEAN_MOTION_DDOT": 0
	},
	{
		"OBJECT_NAME": "STARLINK-3153",
		"OBJECT_ID": "2021-104Z",
		"EPOCH": "2024-11-03T14:35:36.625056",
		"MEAN_MOTION": 15.0884331,
		"ECCENTRICITY": 0.0001817,
		"INCLINATION": 53.2168,
		"RA_OF_ASC_NODE": 273.8525,
		"ARG_OF_PERICENTER": 94.9296,
		"MEAN_ANOMALY": 265.1904,
		"EPHEMERIS_TYPE": 0,
		"CLASSIFICATION_TYPE": "U",
		"NORAD_CAT_ID": 49431,
		"ELEMENT_SET_NO": 999,
		"REV_AT_EPOCH": 16449,
		"BSTAR": 0.00017732,
		"MEAN_MOTION_DOT": 2.535e-5,
		"MEAN_MOTION_DDOT": 0
	},
	{
		"OBJECT_NAME": "STARLINK-3158",
		"OBJECT_ID": "2021-104AA",
		"EPOCH": "2024-11-03T14:17:04.784928",
		"MEAN_MOTION": 15.08839823,
		"ECCENTRICITY": 0.0001323,
		"INCLINATION": 53.2165,
		"RA_OF_ASC_NODE": 263.7302,
		"ARG_OF_PERICENTER": 82.4567,
		"MEAN_ANOMALY": 277.6575,
		"EPHEMERIS_TYPE": 0,
		"CLASSIFICATION_TYPE": "U",
		"NORAD_CAT_ID": 49432,
		"ELEMENT_SET_NO": 999,
		"REV_AT_EPOCH": 16463,
		"BSTAR": 4.8522e-5,
		"MEAN_MOTION_DOT": 4.84e-6,
		"MEAN_MOTION_DDOT": 0
	},
	{
		"OBJECT_NAME": "STARLINK-3079",
		"OBJECT_ID": "2021-104AB",
		"EPOCH": "2024-11-03T14:17:01.334112",
		"MEAN_MOTION": 15.08844826,
		"ECCENTRICITY": 0.0002294,
		"INCLINATION": 53.217,
		"RA_OF_ASC_NODE": 253.7175,
		"ARG_OF_PERICENTER": 114.5786,
		"MEAN_ANOMALY": 245.5446,
		"EPHEMERIS_TYPE": 0,
		"CLASSIFICATION_TYPE": "U",
		"NORAD_CAT_ID": 49433,
		"ELEMENT_SET_NO": 999,
		"REV_AT_EPOCH": 16586,
		"BSTAR": 0.00028525,
		"MEAN_MOTION_DOT": 4.255e-5,
		"MEAN_MOTION_DDOT": 0
	},
	{
		"OBJECT_NAME": "STARLINK-3134",
		"OBJECT_ID": "2021-104AC",
		"EPOCH": "2024-11-03T07:26:21.665472",
		"MEAN_MOTION": 15.08855709,
		"ECCENTRICITY": 0.0001487,
		"INCLINATION": 53.2166,
		"RA_OF_ASC_NODE": 275.1568,
		"ARG_OF_PERICENTER": 92.0059,
		"MEAN_ANOMALY": 268.1103,
		"EPHEMERIS_TYPE": 0,
		"CLASSIFICATION_TYPE": "U",
		"NORAD_CAT_ID": 49434,
		"ELEMENT_SET_NO": 999,
		"REV_AT_EPOCH": 16553,
		"BSTAR": 0.00045871,
		"MEAN_MOTION_DOT": 7.023e-5,
		"MEAN_MOTION_DDOT": 0
	},
	{
		"OBJECT_NAME": "STARLINK-3117",
		"OBJECT_ID": "2021-104AD",
		"EPOCH": "2024-11-03T06:26:45.763872",
		"MEAN_MOTION": 15.08850383,
		"ECCENTRICITY": 0.0001189,
		"INCLINATION": 53.2154,
		"RA_OF_ASC_NODE": 255.1921,
		"ARG_OF_PERICENTER": 85.5638,
		"MEAN_ANOMALY": 274.549,
		"EPHEMERIS_TYPE": 0,
		"CLASSIFICATION_TYPE": "U",
		"NORAD_CAT_ID": 49435,
		"ELEMENT_SET_NO": 999,
		"REV_AT_EPOCH": 16472,
		"BSTAR": 0.00011142,
		"MEAN_MOTION_DOT": 1.486e-5,
		"MEAN_MOTION_DDOT": 0
	},
	{
		"OBJECT_NAME": "STARLINK-3049",
		"OBJECT_ID": "2021-104AE",
		"EPOCH": "2024-11-03T06:25:22.946016",
		"MEAN_MOTION": 15.08853836,
		"ECCENTRICITY": 0.0001564,
		"INCLINATION": 53.2167,
		"RA_OF_ASC_NODE": 255.1934,
		"ARG_OF_PERICENTER": 103.4168,
		"MEAN_ANOMALY": 256.6999,
		"EPHEMERIS_TYPE": 0,
		"CLASSIFICATION_TYPE": "U",
		"NORAD_CAT_ID": 49436,
		"ELEMENT_SET_NO": 999,
		"REV_AT_EPOCH": 16472,
		"BSTAR": 0.00019992,
		"MEAN_MOTION_DOT": 2.896e-5,
		"MEAN_MOTION_DDOT": 0
	},
	{
		"OBJECT_NAME": "STARLINK-3130",
		"OBJECT_ID": "2021-104AF",
		"EPOCH": "2024-11-03T14:11:43.722528",
		"MEAN_MOTION": 15.0884579,
		"ECCENTRICITY": 0.0001554,
		"INCLINATION": 53.2164,
		"RA_OF_ASC_NODE": 253.7437,
		"ARG_OF_PERICENTER": 76.6195,
		"MEAN_ANOMALY": 283.497,
		"EPHEMERIS_TYPE": 0,
		"CLASSIFICATION_TYPE": "U",
		"NORAD_CAT_ID": 49437,
		"ELEMENT_SET_NO": 999,
		"REV_AT_EPOCH": 16477,
		"BSTAR": 0.00027385,
		"MEAN_MOTION_DOT": 4.074e-5,
		"MEAN_MOTION_DDOT": 0
	},
	{
		"OBJECT_NAME": "STARLINK-3044",
		"OBJECT_ID": "2021-104AG",
		"EPOCH": "2024-11-03T13:57:11.797920",
		"MEAN_MOTION": 15.08838507,
		"ECCENTRICITY": 0.0001121,
		"INCLINATION": 53.2191,
		"RA_OF_ASC_NODE": 253.7213,
		"ARG_OF_PERICENTER": 103.5161,
		"MEAN_ANOMALY": 256.5957,
		"EPHEMERIS_TYPE": 0,
		"CLASSIFICATION_TYPE": "U",
		"NORAD_CAT_ID": 49438,
		"ELEMENT_SET_NO": 999,
		"REV_AT_EPOCH": 16477,
		"BSTAR": 8.1907e-5,
		"MEAN_MOTION_DOT": 1.016e-5,
		"MEAN_MOTION_DDOT": 0
	},
	{
		"OBJECT_NAME": "STARLINK-3105",
		"OBJECT_ID": "2021-104AJ",
		"EPOCH": "2024-11-03T14:01:06.963168",
		"MEAN_MOTION": 15.08854867,
		"ECCENTRICITY": 0.0001331,
		"INCLINATION": 53.2185,
		"RA_OF_ASC_NODE": 253.7741,
		"ARG_OF_PERICENTER": 95.8794,
		"MEAN_ANOMALY": 264.235,
		"EPHEMERIS_TYPE": 0,
		"CLASSIFICATION_TYPE": "U",
		"NORAD_CAT_ID": 49440,
		"ELEMENT_SET_NO": 999,
		"REV_AT_EPOCH": 16477,
		"BSTAR": 0.00038033,
		"MEAN_MOTION_DOT": 5.773e-5,
		"MEAN_MOTION_DDOT": 0
	},
	{
		"OBJECT_NAME": "STARLINK-3128",
		"OBJECT_ID": "2021-104AK",
		"EPOCH": "2024-11-03T13:34:37.999776",
		"MEAN_MOTION": 15.08834236,
		"ECCENTRICITY": 9.87e-5,
		"INCLINATION": 53.2173,
		"RA_OF_ASC_NODE": 253.8581,
		"ARG_OF_PERICENTER": 80.0779,
		"MEAN_ANOMALY": 280.0325,
		"EPHEMERIS_TYPE": 0,
		"CLASSIFICATION_TYPE": "U",
		"NORAD_CAT_ID": 49441,
		"ELEMENT_SET_NO": 999,
		"REV_AT_EPOCH": 16477,
		"BSTAR": 5.1633e-5,
		"MEAN_MOTION_DOT": 5.34e-6,
		"MEAN_MOTION_DDOT": 0
	}
]
